{"type": "FeatureCollection", "features": [ {"type": "Feature", "properties": {"norad_id": 67020, "name": "STARLINK-36172", "group": "last-30-days", "lat": -66.78113069320256, "lon": 161.9420163993527, "alt_km": 355.7021145806475, "timestamp": "2025-12-26T13:39:17.667811+00:00", "meta": {"OBJECT_NAME": "STARLINK-36172", "OBJECT_ID": "2025-293T", "EPOCH": "2025-12-26T06:00:02.999808", "MEAN_MOTION": 15.73747431, "ECCENTRICITY": 0.00037187, "INCLINATION": 69.9949, "RA_OF_ASC_NODE": 284.7083, "ARG_OF_PERICENTER": 270.0681, "MEAN_ANOMALY": 342.2718, "EPHEMERIS_TYPE": 0, "CLASSIFICATION_TYPE": "U", "NORAD_CAT_ID": 67020, "ELEMENT_SET_NO": 999, "REV_AT_EPOCH": 239, "BSTAR": -0.012965183, "MEAN_MOTION_DOT": -0.01628984, "MEAN_MOTION_DDOT": 0}, "tle": {"line1": "1 67020U 25293T   25360.25003472 -.01628984  00000+0 -12965-1 0  9998", "line2": "2 67020  69.9949 284.7083 0003718 270.0681 342.2718 15.73747431  2391"}}, "geometry": {"type": "Point", "coordinates": [161.9420163993527, -66.78113069320256]}}, {"type": "Feature", "properties": {"norad_id": 67021, "name": "STARLINK-36184", "group": "last-30-days", "lat": -67.86274904644651, "lon": 167.3905756834676, "alt_km": 355.82749259267257, "timestamp": "2025-12-26T13:39:17.667822+00:00", "meta": {"OBJECT_NAME": "STARLINK-36184", "OBJECT_ID": "2025-293U", "EPOCH": "2025-12-26T06:00:02.999808", "MEAN_MOTION": 15.73722459, "ECCENTRICITY": 0.0003594, "INCLINATION": 69.9945, "RA_OF_ASC_NODE": 284.7054, "ARG_OF_PERICENTER": 267.9682, "MEAN_ANOMALY": 346.7629, "EPHEMERIS_TYPE": 0, "CLASSIFICATION_TYPE": "U", "NORAD_CAT_ID": 67021, "ELEMENT_SET_NO": 999, "REV_AT_EPOCH": 239, "BSTAR": -0.01293868, "MEAN_MOTION_DOT": -0.01624349, "MEAN_MOTION_DDOT": 0}, "tle": {"line1": "1 67021U 25293U   25360.25003472 -.01624349  00000+0 -12939-1 0  9991", "line2": "2 67021  69.9945 284.7054 0003594 267.9682 346.7629 15.73722459  2397"}}, "geometry": {"type": "Point", "coordinates": [167.3905756834676, -67.86274904644651]}}, {"type": "Feature", "properties": {"norad_id": 67022, "name": "STARLINK-36209", "group": "last-30-days", "lat": -68.82473539072953, "lon": 173.9434923310561, "alt_km": 355.8754481978194, "timestamp": "2025-12-26T13:39:17.667834+00:00", "meta": {"OBJECT_NAME": "STARLINK-36209", "OBJECT_ID": "2025-293V", "EPOCH": "2025-12-26T06:00:02.999808", "MEAN_MOTION": 15.73688159, "ECCENTRICITY": 0.00036683, "INCLINATION": 69.9946, "RA_OF_ASC_NODE": 284.7024, "ARG_OF_PERICENTER": 268.259, "MEAN_ANOMALY": 349.1182, "EPHEMERIS_TYPE": 0, "CLASSIFICATION_TYPE": "U", "NORAD_CAT_ID": 67022, "ELEMENT_SET_NO": 999, "REV_AT_EPOCH": 239, "BSTAR": -0.012964418, "MEAN_MOTION_DOT": -0.0162514, "MEAN_MOTION_DDOT": 0}, "tle": {"line1": "1 67022U 25293V   25360.25003472 -.01625140  00000+0 -12964-1 0  9990", "line2": "2 67022  69.9946 284.7024 0003668 268.2590 349.1182 15.73688159  2399"}}, "geometry": {"type": "Point", "coordinates": [173.9434923310561, -68.82473539072953]}}, {"type": "Feature", "properties": {"norad_id": 67023, "name": "STARLINK-36191", "group": "last-30-days", "lat": -69.4483825738339, "lon": -179.8385977281083, "alt_km": 355.9094853138222, "timestamp": "2025-12-26T13:39:17.667846+00:00", "meta": {"OBJECT_NAME": "STARLINK-36191", "OBJECT_ID": "2025-293W", "EPOCH": "2025-12-26T06:00:02.999808", "MEAN_MOTION": 15.73669585, "ECCENTRICITY": 0.00037008, "INCLINATION": 69.9946, "RA_OF_ASC_NODE": 284.699, "ARG_OF_PERICENTER": 268.5491, "MEAN_ANOMALY": 351.1545, "EPHEMERIS_TYPE": 0, "CLASSIFICATION_TYPE": "U", "NORAD_CAT_ID": 67023, "ELEMENT_SET_NO": 999, "REV_AT_EPOCH": 228, "BSTAR": -0.012985887, "MEAN_MOTION_DOT": -0.016264, "MEAN_MOTION_DDOT": 0}, "tle": {"line1": "1 67023U 25293W   25360.25003472 -.01626400  00000+0 -12986-1 0  9995", "line2": "2 67023  69.9946 284.6990 0003700 268.5491 351.1545 15.73669585  2287"}}, "geometry": {"type": "Point", "coordinates": [-179.8385977281083, -69.4483825738339]}}, {"type": "Feature", "properties": {"norad_id": 67024, "name": "STARLINK-36192", "group": "last-30-days", "lat": -69.85886399348333, "lon": -172.80010747919061, "alt_km": 356.0205150344482, "timestamp": "2025-12-26T13:39:17.667856+00:00", "meta": {"OBJECT_NAME": "STARLINK-36192", "OBJECT_ID": "2025-293X", "EPOCH": "2025-12-26T06:00:02.999808", "MEAN_MOTION": 15.73640784, "ECCENTRICITY": 0.00036581, "INCLINATION": 69.995, "RA_OF_ASC_NODE": 284.6963, "ARG_OF_PERICENTER": 268.0245, "MEAN_ANOMALY": 354.1964, "EPHEMERIS_TYPE": 0, "CLASSIFICATION_TYPE": "U", "NORAD_CAT_ID": 67024, "ELEMENT_SET_NO": 999, "REV_AT_EPOCH": 239, "BSTAR": -0.012997517, "MEAN_MOTION_DOT": -0.01625855, "MEAN_MOTION_DDOT": 0}, "tle": {"line1": "1 67024U 25293X   25360.25003472 -.01625855  00000+0 -12998-1 0  9992", "line2": "2 67024  69.9950 284.6963 0003658 268.0245 354.1964 15.73640784  2397"}}, "geometry": {"type": "Point", "coordinates": [-172.80010747919061, -69.85886399348333]}}, {"type": "Feature", "properties": {"norad_id": 67025, "name": "STARLINK-36178", "group": "last-30-days", "lat": -69.98151244967521, "lon": -166.4354537711782, "alt_km": 356.0766227191107, "timestamp": "2025-12-26T13:39:17.667866+00:00", "meta": {"OBJECT_NAME": "STARLINK-36178", "OBJECT_ID": "2025-293Y", "EPOCH": "2025-12-26T06:00:02.999808", "MEAN_MOTION": 15.73628313, "ECCENTRICITY": 0.00036409, "INCLINATION": 69.9951, "RA_OF_ASC_NODE": 284.6937, "ARG_OF_PERICENTER": 268.3315, "MEAN_ANOMALY": 356.097, "EPHEMERIS_TYPE": 0, "CLASSIFICATION_TYPE": "U", "NORAD_CAT_ID": 67025, "ELEMENT_SET_NO": 999, "REV_AT_EPOCH": 239, "BSTAR": -0.013026033, "MEAN_MOTION_DOT": -0.01628232, "MEAN_MOTION_DDOT": 0}, "tle": {"line1": "1 67025U 25293Y   25360.25003472 -.01628232  00000+0 -13026-1 0  9998", "line2": "2 67025  69.9951 284.6937 0003640 268.3315 356.0970 15.73628313  2394"}}, "geometry": {"type": "Point", "coordinates": [-166.4354537711782, -69.98151244967521]}}, {"type": "Feature", "properties": {"norad_id": 67026, "name": "STARLINK-36176", "group": "last-30-days", "lat": -69.49101588598397, "lon": -153.11625202176154, "alt_km": 356.26756676466266, "timestamp": "2025-12-26T13:39:17.667876+00:00", "meta": {"OBJECT_NAME": "STARLINK-36176", "OBJECT_ID": "2025-293Z", "EPOCH": "2025-12-26T06:00:02.999808", "MEAN_MOTION": 15.73583886, "ECCENTRICITY": 0.00035225, "INCLINATION": 69.9949, "RA_OF_ASC_NODE": 284.6896, "ARG_OF_PERICENTER": 271.1785, "MEAN_ANOMALY": 357.9382, "EPHEMERIS_TYPE": 0, "CLASSIFICATION_TYPE": "U", "NORAD_CAT_ID": 67026, "ELEMENT_SET_NO": 999, "REV_AT_EPOCH": 239, "BSTAR": -0.012982709, "MEAN_MOTION_DOT": -0.01620537, "MEAN_MOTION_DDOT": 0}, "tle": {"line1": "1 67026U 25293Z   25360.25003472 -.01620537  00000+0 -12983-1 0  9990", "line2": "2 67026  69.9949 284.6896 0003522 271.1785 357.9382 15.73583886  2390"}}, "geometry": {"type": "Point", "coordinates": [-153.11625202176154, -69.49101588598397]}}, {"type": "Feature", "properties": {"norad_id": 67027, "name": "STARLINK-36171", "group": "last-30-days", "lat": -69.83781876797312, "lon": -159.09124021074643, "alt_km": 356.1789496876445, "timestamp": "2025-12-26T13:39:17.667888+00:00", "meta": {"OBJECT_NAME": "STARLINK-36171", "OBJECT_ID": "2025-293AA", "EPOCH": "2025-12-26T06:00:02.999808", "MEAN_MOTION": 15.73597306, "ECCENTRICITY": 0.00036239, "INCLINATION": 69.9943, "RA_OF_ASC_NODE": 284.6904, "ARG_OF_PERICENTER": 268.3219, "MEAN_ANOMALY": 358.672, "EPHEMERIS_TYPE": 0, "CLASSIFICATION_TYPE": "U", "NORAD_CAT_ID": 67027, "ELEMENT_SET_NO": 999, "REV_AT_EPOCH": 239, "BSTAR": -0.013030845, "MEAN_MOTION_DOT": -0.01626812, "MEAN_MOTION_DDOT": 0}, "tle": {"line1": "1 67027U 25293AA  25360.25003472 -.01626812  00000+0 -13031-1 0  9998", "line2": "2 67027  69.9943 284.6904 0003623 268.3219 358.6720 15.73597306  2393"}}, "geometry": {"type": "Point", "coordinates": [-159.09124021074643, -69.83781876797312]}}, {"type": "Feature", "properties": {"norad_id": 67028, "name": "STARLINK-36132", "group": "last-30-days", "lat": -68.04160472850114, "lon": -140.85925979600546, "alt_km": 356.20594268307013, "timestamp": "2025-12-26T13:39:17.667899+00:00", "meta": {"OBJECT_NAME": "STARLINK-36132", "OBJECT_ID": "2025-293AB", "EPOCH": "2025-12-26T06:00:02.999808", "MEAN_MOTION": 15.7354903, "ECCENTRICITY": 0.0003813, "INCLINATION": 69.9951, "RA_OF_ASC_NODE": 284.6824, "ARG_OF_PERICENTER": 270.4065, "MEAN_ANOMALY": 3.4245, "EPHEMERIS_TYPE": 0, "CLASSIFICATION_TYPE": "U", "NORAD_CAT_ID": 67028, "ELEMENT_SET_NO": 999, "REV_AT_EPOCH": 239, "BSTAR": -0.013101848, "MEAN_MOTION_DOT": -0.01631829, "MEAN_MOTION_DDOT": 0}, "tle": {"line1": "1 67028U 25293AB  25360.25003472 -.01631829  00000+0 -13102-1 0  9992", "line2": "2 67028  69.9951 284.6824 0003813 270.4065   3.4245 15.73549030  2396"}}, "geometry": {"type": "Point", "coordinates": [-140.85925979600546, -68.04160472850114]}}, {"type": "Feature", "properties": {"norad_id": 67029, "name": "STARLINK-36190", "group": "last-30-days", "lat": -68.92367280248492, "lon": -147.1832540242865, "alt_km": 356.197090245857, "timestamp": "2025-12-26T13:39:17.667909+00:00", "meta": {"OBJECT_NAME": "STARLINK-36190", "OBJECT_ID": "2025-293AC", "EPOCH": "2025-12-26T06:00:02.999808", "MEAN_MOTION": 15.73574505, "ECCENTRICITY": 0.00037196, "INCLINATION": 69.9953, "RA_OF_ASC_NODE": 284.6863, "ARG_OF_PERICENTER": 267.893, "MEAN_ANOMALY": 3.4198, "EPHEMERIS_TYPE": 0, "CLASSIFICATION_TYPE": "U", "NORAD_CAT_ID": 67029, "ELEMENT_SET_NO": 999, "REV_AT_EPOCH": 239, "BSTAR": -0.013051074, "MEAN_MOTION_DOT": -0.01627713, "MEAN_MOTION_DDOT": 0}, "tle": {"line1": "1 67029U 25293AC  25360.25003472 -.01627713  00000+0 -13051-1 0  9993", "line2": "2 67029  69.9953 284.6863 0003719 267.8930   3.4198 15.73574505  2390"}}, "geometry": {"type": "Point", "coordinates": [-147.1832540242865, -68.92367280248492]}}]}